{
  "type": "FeatureCollection",
  "features": [
    {
      "type": "Feature",
      "properties": {
        "norad_id": 31410,
        "name": "FENGYUN 1C DEB",
        "group": "fengyun-1c-debris",
        "lat": 14.198173036485656,
        "lon": 137.7178084859372,
        "alt_km": 708.3888245673479,
        "timestamp": "2025-12-04T17:48:40.448013+00:00",
        "meta_object_name": "FENGYUN 1C DEB",
        "meta_object_id": "1999-025BSW",
        "meta_epoch": "2025-12-01T10:16:43.576896",
        "meta_mean_motion": 14.44660711,
        "meta_eccentricity": 0.01107684,
        "meta_inclination": 98.8365,
        "meta_ra_of_asc_node": 136.529,
        "meta_arg_of_pericenter": 320.6498,
        "meta_mean_anomaly": 107.8693,
        "meta_ephemeris_type": 0,
        "meta_classification_type": "U",
        "meta_norad_cat_id": 31410,
        "meta_element_set_no": 999,
        "meta_rev_at_epoch": 97588,
        "meta_bstar": 0.0008135917,
        "meta_mean_motion_dot": 2.987e-05,
        "meta_mean_motion_ddot": 0,
        "tle_line1": "1 31410U 99025BSW 25335.42828214  .00002987  00000+0  81359-3 0  9997",
        "tle_line2": "2 31410  98.8365 136.5290 0110768 320.6498 107.8693 14.44660711975886"
      },
      "geometry": {
        "type": "Point",
        "coordinates": [
          137.7178084859372,
          14.198173036485656
        ]
      }
    },
    {
      "type": "Feature",
      "properties": {
        "norad_id": 31411,
        "name": "FENGYUN 1C DEB",
        "group": "fengyun-1c-debris",
        "lat": -69.06347626151911,
        "lon": -163.42438362875632,
        "alt_km": 741.7024784035129,
        "timestamp": "2025-12-04T17:48:40.448023+00:00",
        "meta_object_name": "FENGYUN 1C DEB",
        "meta_object_id": "1999-025BSX",
        "meta_epoch": "2025-12-03T22:58:04.532160",
        "meta_mean_motion": 14.27954054,
        "meta_eccentricity": 0.01005575,
        "meta_inclination": 98.6701,
        "meta_ra_of_asc_node": 39.3006,
        "meta_arg_of_pericenter": 280.7403,
        "meta_mean_anomaly": 256.8017,
        "meta_ephemeris_type": 0,
        "meta_classification_type": "U",
        "meta_norad_cat_id": 31411,
        "meta_element_set_no": 999,
        "meta_rev_at_epoch": 94354,
        "meta_bstar": 0.00083851976,
        "meta_mean_motion_dot": 2.149e-05,
        "meta_mean_motion_ddot": 0,
        "tle_line1": "1 31411U 99025BSX 25337.95699690  .00002149  00000+0  83852-3 0  9992",
        "tle_line2": "2 31411  98.6701  39.3006 0100557 280.7403 256.8017 14.27954054943541"
      },
      "geometry": {
        "type": "Point",
        "coordinates": [
          -163.42438362875632,
          -69.06347626151911
        ]
      }
    },
    {
      "type": "Feature",
      "properties": {
        "norad_id": 31412,
        "name": "FENGYUN 1C DEB",
        "group": "fengyun-1c-debris",
        "lat": 34.585271472143354,
        "lon": -82.91312016037263,
        "alt_km": 809.2842250729063,
        "timestamp": "2025-12-04T17:48:40.448037+00:00",
        "meta_object_name": "FENGYUN 1C DEB",
        "meta_object_id": "1999-025BSY",
        "meta_epoch": "2025-11-28T06:38:13.979616",
        "meta_mean_motion": 14.09684254,
        "meta_eccentricity": 0.00844356,
        "meta_inclination": 98.5498,
        "meta_ra_of_asc_node": 276.8981,
        "meta_arg_of_pericenter": 16.021,
        "meta_mean_anomaly": 344.3602,
        "meta_ephemeris_type": 0,
        "meta_classification_type": "U",
        "meta_norad_cat_id": 31412,
        "meta_element_set_no": 999,
        "meta_rev_at_epoch": 60788,
        "meta_bstar": 0.0021882226,
        "meta_mean_motion_dot": 3.927e-05,
        "meta_mean_motion_ddot": 0,
        "tle_line1": "1 31412U 99025BSY 25332.27655069  .00003927  00000+0  21882-2 0  9994",
        "tle_line2": "2 31412  98.5498 276.8981 0084435  16.0210 344.3602 14.09684254607885"
      },
      "geometry": {
        "type": "Point",
        "coordinates": [
          -82.91312016037263,
          34.585271472143354
        ]
      }
    },
    {
      "type": "Feature",
      "properties": {
        "norad_id": 31415,
        "name": "FENGYUN 1C DEB",
        "group": "fengyun-1c-debris",
        "lat": 9.656798346335522,
        "lon": -71.72813087446924,
        "alt_km": 788.9379211394544,
        "timestamp": "2025-12-04T17:48:40.448047+00:00",
        "meta_object_name": "FENGYUN 1C DEB",
        "meta_object_id": "1999-025BTB",
        "meta_epoch": "2025-11-30T02:58:22.044864",
        "meta_mean_motion": 14.30472505,
        "meta_eccentricity": 0.00637436,
        "meta_inclination": 99.637,
        "meta_ra_of_asc_node": 284.8171,
        "meta_arg_of_pericenter": 110.0761,
        "meta_mean_anomaly": 250.7294,
        "meta_ephemeris_type": 0,
        "meta_classification_type": "U",
        "meta_norad_cat_id": 31415,
        "meta_element_set_no": 999,
        "meta_rev_at_epoch": 62650,
        "meta_bstar": 0.0013587885,
        "meta_mean_motion_dot": 3.567e-05,
        "meta_mean_motion_ddot": 0,
        "tle_line1": "1 31415U 99025BTB 25334.12386626  .00003567  00000+0  13588-2 0  9997",
        "tle_line2": "2 31415  99.6370 284.8171 0063743 110.0761 250.7294 14.30472505626509"
      },
      "geometry": {
        "type": "Point",
        "coordinates": [
          -71.72813087446924,
          9.656798346335522
        ]
      }
    },
    {
      "type": "Feature",
      "properties": {
        "norad_id": 31416,
        "name": "FENGYUN 1C DEB",
        "group": "fengyun-1c-debris",
        "lat": 57.55321941867949,
        "lon": -136.96638691403302,
        "alt_km": 835.5210007969845,
        "timestamp": "2025-12-04T17:48:40.448059+00:00",
        "meta_object_name": "FENGYUN 1C DEB",
        "meta_object_id": "1999-025BTC",
        "meta_epoch": "2025-12-03T21:14:16.268064",
        "meta_mean_motion": 14.40643404,
        "meta_eccentricity": 0.0133078,
        "meta_inclination": 99.0535,
        "meta_ra_of_asc_node": 27.6023,
        "meta_arg_of_pericenter": 277.269,
        "meta_mean_anomaly": 81.3386,
        "meta_ephemeris_type": 0,
        "meta_classification_type": "U",
        "meta_norad_cat_id": 31416,
        "meta_element_set_no": 999,
        "meta_rev_at_epoch": 65392,
        "meta_bstar": 0.00051321,
        "meta_mean_motion_dot": 1.763e-05,
        "meta_mean_motion_ddot": 0,
        "tle_line1": "1 31416U 99025BTC 25337.88491051  .00001763  00000+0  51321-3 0  9997",
        "tle_line2": "2 31416  99.0535  27.6023 0133078 277.2690  81.3386 14.40643404653927"
      },
      "geometry": {
        "type": "Point",
        "coordinates": [
          -136.96638691403302,
          57.55321941867949
        ]
      }
    },
    {
      "type": "Feature",
      "properties": {
        "norad_id": 31420,
        "name": "FENGYUN 1C DEB",
        "group": "fengyun-1c-debris",
        "lat": -36.55067296051385,
        "lon": -116.74047668019995,
        "alt_km": 677.2029256268315,
        "timestamp": "2025-12-04T17:48:40.448069+00:00",
        "meta_object_name": "FENGYUN 1C DEB",
        "meta_object_id": "1999-025BTG",
        "meta_epoch": "2025-12-02T05:00:22.989888",
        "meta_mean_motion": 14.4072494,
        "meta_eccentricity": 0.0136749,
        "meta_inclination": 97.5586,
        "meta_ra_of_asc_node": 235.3697,
        "meta_arg_of_pericenter": 0.5233,
        "meta_mean_anomaly": 150.6733,
        "meta_ephemeris_type": 0,
        "meta_classification_type": "U",
        "meta_norad_cat_id": 31420,
        "meta_element_set_no": 999,
        "meta_rev_at_epoch": 64842,
        "meta_bstar": 0.00094796,
        "meta_mean_motion_dot": 3.346e-05,
        "meta_mean_motion_ddot": 0,
        "tle_line1": "1 31420U 99025BTG 25336.20859942  .00003346  00000+0  94796-3 0  9996",
        "tle_line2": "2 31420  97.5586 235.3697 0136749   0.5233 150.6733 14.40724940648424"
      },
      "geometry": {
        "type": "Point",
        "coordinates": [
          -116.74047668019995,
          -36.55067296051385
        ]
      }
    },
    {
      "type": "Feature",
      "properties": {
        "norad_id": 31422,
        "name": "FENGYUN 1C DEB",
        "group": "fengyun-1c-debris",
        "lat": 46.80105823874697,
        "lon": -33.53827693045521,
        "alt_km": 853.7507749838787,
        "timestamp": "2025-12-04T17:48:40.448079+00:00",
        "meta_object_name": "FENGYUN 1C DEB",
        "meta_object_id": "1999-025BTJ",
        "meta_epoch": "2025-12-03T18:33:54.370080",
        "meta_mean_motion": 14.09602182,
        "meta_eccentricity": 0.00341914,
        "meta_inclination": 98.7599,
        "meta_ra_of_asc_node": 334.9702,
        "meta_arg_of_pericenter": 326.656,
        "meta_mean_anomaly": 208.1206,
        "meta_ephemeris_type": 0,
        "meta_classification_type": "U",
        "meta_norad_cat_id": 31422,
        "meta_element_set_no": 999,
        "meta_rev_at_epoch": 95535,
        "meta_bstar": 0.00049068577,
        "meta_mean_motion_dot": 8.21e-06,
        "meta_mean_motion_ddot": 0,
        "tle_line1": "1 31422U 99025BTJ 25337.77354595  .00000821  00000+0  49069-3 0  9993",
        "tle_line2": "2 31422  98.7599 334.9702 0034191 326.6560 208.1206 14.09602182955354"
      },
      "geometry": {
        "type": "Point",
        "coordinates": [
          -33.53827693045521,
          46.80105823874697
        ]
      }
    }
  ]
}